NORAD_CAT_ID,OBJECT_NAME,OBJECT_TYPE,EPOCH,MEAN_MOTION,ECCENTRICITY,INCLINATION,RA_OF_ASC_NODE,ARG_OF_PERICENTER,MEAN_ANOMALY,BSTAR,MEAN_MOTION_DOT,MEAN_MOTION_DDOT,TLE_LINE0,TLE_LINE1,TLE_LINE2,SEMIMAJOR_AXIS,PERIOD,APOGEE,PERIGEE,DECAYED
52547.0,STARLINK-3869,PAYLOAD,2024-03-17 10:24:06,15.08840513,0.0001562,53.2174,136.4587,77.7325,282.3842,9.6575e-05,1.249e-05,0.0,0 STARLINK-3869,1 52547U 22051Q   24077.43340367  .00001249  00000-0  96575-4 0  9995,2 52547  53.2174 136.4587 0001562  77.7325 282.3842 15.08840513102407,6917.879,95.438,540.824,538.663,0.0
52547.0,STARLINK-3869,PAYLOAD,2024-03-18 10:14:53,15.08840481,0.0001622,53.2179,131.9982,95.1239,264.9938,5.6247e-05,6.07e-06,0.0,0 STARLINK-3869,1 52547U 22051Q   24078.42700406  .00000607  00000-0  56247-4 0  9998,2 52547  53.2179 131.9982 0001622  95.1239 264.9938 15.08840481102480,6917.879,95.438,540.866,538.622,0.0
52547.0,STARLINK-3869,PAYLOAD,2024-03-19 03:44:06,15.08852124,0.0001624,53.2179,128.7261,106.592,253.525,0.00011823,1.595e-05,0.0,0 STARLINK-3869,1 52547U 22051Q   24079.15563237  .00001595  00000-0  11823-3 0  9995,2 52547  53.2179 128.7261 0001624 106.5920 253.5250 15.08852124102668,6917.843,95.437,540.832,538.585,0.0
52547.0,STARLINK-3869,PAYLOAD,2024-03-19 10:05:38,15.08860669,0.0001675,53.218,127.5377,103.2686,256.8493,0.00020048,2.906e-05,0.0,0 STARLINK-3869,1 52547U 22051Q   24079.42058379  .00002906  00000-0  20048-3 0  9997,2 52547  53.2180 127.5377 0001675 103.2686 256.8493 15.08860669102707,6917.817,95.436,540.841,538.523,0.0
52547.0,STARLINK-3869,PAYLOAD,2024-03-20 01:59:29,15.08857113,0.0001711,53.2186,124.568,104.7569,255.3613,0.00019459,2.812e-05,0.0,0 STARLINK-3869,1 52547U 22051Q   24080.08297964  .00002812  00000-0  19459-3 0  9996,2 52547  53.2186 124.5680 0001711 104.7569 255.3613 15.08857113102803,6917.828,95.436,540.877,538.509,0.0
52547.0,STARLINK-3869,PAYLOAD,2024-03-20 08:21:02,15.08850415,0.0001359,53.2172,123.3664,114.6302,245.4831,5.0173e-05,5.11e-06,0.0,0 STARLINK-3869,1 52547U 22051Q   24080.34794658  .00000511  00000-0  50173-4 0  9990,2 52547  53.2172 123.3664 0001359 114.6302 245.4831 15.08850415102844,6917.849,95.437,540.654,538.773,0.0
52547.0,STARLINK-3869,PAYLOAD,2024-03-21 03:25:42,15.08825697,0.0001332,53.2168,119.8015,102.2929,257.8212,-0.0002593,-4.411e-05,0.0,0 STARLINK-3869,1 52547U 22051Q   24081.14285496 -.00004411  00000-0 -25930-3 0  9991,2 52547  53.2168 119.8015 0001332 102.2929 257.8212 15.08825697102965,6917.924,95.438,540.711,538.868,0.0
52547.0,STARLINK-3869,PAYLOAD,2024-03-21 09:47:15,15.08825762,0.0001495,53.2175,118.6185,103.192,256.9239,-0.00022339,-3.84e-05,0.0,0 STARLINK-3869,1 52547U 22051Q   24081.40781547 -.00003840  00000-0 -22339-3 0  9993,2 52547  53.2175 118.6185 0001495 103.1920 256.9239 15.08825762102938,6917.924,95.438,540.823,538.755,0.0
52547.0,STARLINK-3869,PAYLOAD,2024-03-22 01:41:05,15.08832896,0.0001486,53.2164,115.6415,92.9758,267.1404,5.0824e-06,-2.07e-06,0.0,0 STARLINK-3869,1 52547U 22051Q   24082.07020768 -.00000207  00000-0  50824-5 0  9993,2 52547  53.2164 115.6415 0001486  92.9758 267.1404 15.08832896103107,6917.902,95.438,540.795,538.739,0.0
52547.0,STARLINK-3869,PAYLOAD,2024-03-22 11:13:23,15.08848214,0.0001346,53.2166,113.8571,90.9438,269.1708,0.0002521,3.727e-05,0.0,0 STARLINK-3869,1 52547U 22051Q   24082.46763076  .00003727  00000-0  25210-3 0  9990,2 52547  53.2166 113.8571 0001346  90.9438 269.1708 15.08848214103166,6917.855,95.437,540.651,538.789,0.0
52547.0,STARLINK-3869,PAYLOAD,2024-03-22 12:48:46,15.08847806,0.0001352,53.2159,113.5595,88.233,271.8817,0.00024522,3.618e-05,0.0,0 STARLINK-3869,1 52547U 22051Q   24082.53387115  .00003618  00000-0  24522-3 0  9998,2 52547  53.2159 113.5595 0001352  88.2330 271.8817 15.08847806103100,6917.857,95.437,540.657,538.786,0.0
52547.0,STARLINK-3869,PAYLOAD,2024-03-23 01:31:53,15.08830908,0.0001654,53.2157,111.18,80.6405,279.4774,0.00017054,2.427e-05,0.0,0 STARLINK-3869,1 52547U 22051Q   24083.06380987  .00002427  00000-0  17054-3 0  9996,2 52547  53.2157 111.1800 0001654  80.6405 279.4774 15.08830908103252,6917.908,95.438,540.917,538.629,0.0
52547.0,STARLINK-3869,PAYLOAD,2024-03-23 11:04:11,15.08838235,0.000135,53.2171,109.3946,92.9996,267.115,0.00022525,3.299e-05,0.0,0 STARLINK-3869,1 52547U 22051Q   24083.46124389  .00003299  00000-0  22525-3 0  9999,2 52547  53.2171 109.3946 0001350  92.9996 267.1150 15.08838235103312,6917.886,95.438,540.685,538.817,0.0
52547.0,STARLINK-3869,PAYLOAD,2024-03-23 19:01:06,15.08847048,0.0001461,53.2173,107.9101,89.3545,270.7615,0.0002858,4.264e-05,0.0,0 STARLINK-3869,1 52547U 22051Q   24083.79243851  .00004264  00000-0  28580-3 0  9991,2 52547  53.2173 107.9101 0001461  89.3545 270.7615 15.08847048103299,6917.859,95.437,540.735,538.713,0.0
52547.0,STARLINK-3869,PAYLOAD,2024-03-24 07:44:09,15.08874772,0.0001451,53.2165,105.5291,107.7354,252.3797,0.00016197,2.293e-05,0.0,0 STARLINK-3869,1 52547U 22051Q   24084.32233757  .00002293  00000-0  16197-3 0  9996,2 52547  53.2165 105.5291 0001451 107.7354 252.3797 15.08874772103444,6917.774,95.435,540.643,538.635,0.0
52547.0,STARLINK-3869,PAYLOAD,2024-03-24 18:51:50,15.08894131,0.000158,53.217,103.4481,97.6672,262.4499,0.00053541,8.256e-05,0.0,0 STARLINK-3869,1 52547U 22051Q   24084.78600377  .00008256  00000-0  53541-3 0  9991,2 52547  53.2170 103.4481 0001580  97.6672 262.4499 15.08894131103511,6917.715,95.434,540.673,538.487,0.0
52547.0,STARLINK-3869,PAYLOAD,2024-03-25 05:59:30,15.08925606,0.0001826,53.2153,101.365,110.9307,249.1881,0.0010466,0.00016447,0.0,0 STARLINK-3869,1 52547U 22051Q   24085.24965795  .00016447  00000-0  10466-2 0  9990,2 52547  53.2153 101.3650 0001826 110.9307 249.1881 15.08925606103580,6917.619,95.432,540.747,538.221,0.0
52547.0,STARLINK-3869,PAYLOAD,2024-03-25 07:34:53,15.08935654,0.0001521,53.2159,101.0697,96.3693,263.7472,0.0013118,0.00020706,0.0,0 STARLINK-3869,1 52547U 22051Q   24085.31589460  .00020706  00000-0  13118-2 0  9999,2 52547  53.2159 101.0697 0001521  96.3693 263.7472 15.08935654103594,6917.588,95.432,540.505,538.401,0.0
52547.0,STARLINK-3869,PAYLOAD,2024-03-26 05:50:10,15.09003932,0.0001589,53.2158,96.9067,94.1864,265.931,0.0019305,0.00030709,0.0,0 STARLINK-3869,1 52547U 22051Q   24086.24317155  .00030709  00000-0  19305-2 0  9990,2 52547  53.2158  96.9067 0001589  94.1864 265.9310 15.09003932103733,6917.379,95.427,540.344,538.145,0.0
52547.0,STARLINK-3869,PAYLOAD,2024-03-26 10:36:17,15.09018936,0.0001644,53.2162,96.0151,94.9024,265.2156,0.0026601,0.00042512,0.0,0 STARLINK-3869,1 52547U 22051Q   24086.44186993  .00042512  00000-0  26601-2 0  9998,2 52547  53.2162  96.0151 0001644  94.9024 265.2156 15.09018936103697,6917.334,95.426,540.336,538.061,0.0
52547.0,STARLINK-3869,PAYLOAD,2024-03-27 05:40:46,15.09039649,0.0001643,53.2165,92.4457,96.951,263.1669,0.0014359,0.00022764,0.0,0 STARLINK-3869,1 52547U 22051Q   24087.23665277  .00022764  00000-0  14359-2 0  9997,2 52547  53.2165  92.4457 0001643  96.9510 263.1669 15.09039649103881,6917.27,95.425,540.272,537.999,0.0
52547.0,STARLINK-3869,PAYLOAD,2024-03-27 10:26:53,15.09047391,0.0001621,53.2166,91.5533,96.5405,263.5772,0.0013827,0.00021912,0.0,0 STARLINK-3869,1 52547U 22051Q   24087.43534588  .00021912  00000-0  13827-2 0  9992,2 52547  53.2166  91.5533 0001621  96.5405 263.5772 15.09047391103840,6917.247,95.424,540.233,537.99,0.0
52547.0,STARLINK-3869,PAYLOAD,2024-03-27 16:48:23,15.09054479,0.000162,53.2168,90.3634,98.4458,261.6718,0.0010326,0.00016281,0.0,0 STARLINK-3869,1 52547U 22051Q   24087.70026844  .00016281  00000-0  10326-2 0  9997,2 52547  53.2168  90.3634 0001620  98.4458 261.6718 15.09054479103887,6917.225,95.424,540.21,537.969,0.0
52547.0,STARLINK-3869,PAYLOAD,2024-03-28 10:17:27,15.09084486,0.0001619,53.2168,87.0916,100.2965,259.8209,0.0011533,0.00018238,0.0,0 STARLINK-3869,1 52547U 22051Q   24088.42879583  .00018238  00000-0  11533-2 0  9998,2 52547  53.2168  87.0916 0001619 100.2965 259.8209 15.09084486104062,6917.133,95.422,540.118,537.878,0.0
52547.0,STARLINK-3869,PAYLOAD,2024-03-28 23:00:25,15.0910499,0.000161,53.2167,84.7121,101.8971,258.2202,0.0011531,0.00018245,0.0,0 STARLINK-3869,1 52547U 22051Q   24088.95862539  .00018245  00000-0  11531-2 0  9995,2 52547  53.2167  84.7121 0001610 101.8971 258.2202 15.09104990104078,6917.071,95.421,540.049,537.822,0.0
52547.0,STARLINK-3869,PAYLOAD,2024-03-29 08:32:37,15.09121535,0.0001614,53.2168,82.9277,102.8043,257.3129,0.0011764,0.00018629,0.0,0 STARLINK-3869,1 52547U 22051Q   24089.35599243  .00018629  00000-0  11764-2 0  9993,2 52547  53.2168  82.9277 0001614 102.8043 257.3129 15.09121535104135,6917.02,95.42,540.001,537.769,0.0
52547.0,STARLINK-3869,PAYLOAD,2024-03-29 16:29:27,15.09137293,0.0001628,53.2167,81.4405,105.186,254.9313,0.0013867,0.00022031,0.0,0 STARLINK-3869,1 52547U 22051Q   24089.68712907  .00022031  00000-0  13867-2 0  9991,2 52547  53.2167  81.4405 0001628 105.1860 254.9313 15.09137293104258,6916.972,95.419,539.963,537.711,0.0
52547.0,STARLINK-3869,PAYLOAD,2024-03-30 05:12:23,15.09141564,0.000126,53.2177,79.0612,112.5416,247.571,0.00057725,8.986e-05,0.0,0 STARLINK-3869,1 52547U 22051Q   24090.21694179  .00008986  00000-0  57725-3 0  9997,2 52547  53.2177  79.0612 0001260 112.5416 247.5710 15.09141564104337,6916.959,95.418,539.695,537.952,0.0
52547.0,STARLINK-3869,PAYLOAD,2024-03-30 08:23:08,15.09105716,0.0001457,53.2168,78.4664,93.6025,266.5134,-0.00062049,-0.00010222,0.0,0 STARLINK-3869,1 52547U 22051Q   24090.34940692 -.00010222  00000-0 -62049-3 0  9998,2 52547  53.2168  78.4664 0001457  93.6025 266.5134 15.09105716104352,6917.068,95.421,539.941,537.926,0.0
52547.0,STARLINK-3869,PAYLOAD,2024-03-30 16:20:00,15.09077825,0.0001108,53.2168,76.9794,102.8731,257.2385,-0.0010272,-0.00016705,0.0,0 STARLINK-3869,1 52547U 22051Q   24090.68055710 -.00016705  00000-0 -10272-2 0  9995,2 52547  53.2168  76.9794 0001108 102.8731 257.2385 15.09077825104409,6917.154,95.423,539.785,538.252,0.0
